{
  "type": "FeatureCollection",
  "features": [
    {
      "type": "Feature",
      "properties": {
        "norad_id": 66821,
        "name": "STARLINK-35966",
        "group": "last-30-days",
        "lat": -34.139243712997335,
        "lon": 7.729865549654097,
        "alt_km": 413.64371912564,
        "timestamp": "2025-12-21T20:41:06.757762+00:00",
        "meta_object_name": "STARLINK-35966",
        "meta_object_id": "2025-280A",
        "meta_epoch": "2025-12-21T14:00:01.999872",
        "meta_mean_motion": 15.52499222,
        "meta_eccentricity": 0.00033164,
        "meta_inclination": 70,
        "meta_ra_of_asc_node": 174.1943,
        "meta_arg_of_pericenter": 268.3922,
        "meta_mean_anomaly": 191.9802,
        "meta_ephemeris_type": 0,
        "meta_classification_type": "U",
        "meta_norad_cat_id": 66821,
        "meta_element_set_no": 999,
        "meta_rev_at_epoch": 431,
        "meta_bstar": 0.00043908813,
        "meta_mean_motion_dot": 0.00026918,
        "meta_mean_motion_ddot": 0,
        "tle_line1": "1 66821U 25280A   25355.58335648  .00026918  00000+0  43909-3 0  9995",
        "tle_line2": "2 66821  70.0000 174.1943 0003316 268.3922 191.9802 15.52499222  4315"
      },
      "geometry": {
        "type": "Point",
        "coordinates": [
          7.729865549654097,
          -34.139243712997335
        ]
      }
    },
    {
      "type": "Feature",
      "properties": {
        "norad_id": 66822,
        "name": "STARLINK-35958",
        "group": "last-30-days",
        "lat": -35.88215221885074,
        "lon": 8.706947314157055,
        "alt_km": 413.64358307193925,
        "timestamp": "2025-12-21T20:41:06.757771+00:00",
        "meta_object_name": "STARLINK-35958",
        "meta_object_id": "2025-280B",
        "meta_epoch": "2025-12-21T14:00:01.999872",
        "meta_mean_motion": 15.52492117,
        "meta_eccentricity": 0.0003344,
        "meta_inclination": 69.9997,
        "meta_ra_of_asc_node": 174.1922,
        "meta_arg_of_pericenter": 267.299,
        "meta_mean_anomaly": 194.9983,
        "meta_ephemeris_type": 0,
        "meta_classification_type": "U",
        "meta_norad_cat_id": 66822,
        "meta_element_set_no": 999,
        "meta_rev_at_epoch": 431,
        "meta_bstar": 0.00055720755,
        "meta_mean_motion_dot": 0.00034227,
        "meta_mean_motion_ddot": 0,
        "tle_line1": "1 66822U 25280B   25355.58335648  .00034227  00000+0  55721-3 0  9993",
        "tle_line2": "2 66822  69.9997 174.1922 0003344 267.2990 194.9983 15.52492117  4318"
      },
      "geometry": {
        "type": "Point",
        "coordinates": [
          8.706947314157055,
          -35.88215221885074
        ]
      }
    },
    {
      "type": "Feature",
      "properties": {
        "norad_id": 66823,
        "name": "STARLINK-35957",
        "group": "last-30-days",
        "lat": -37.61766879545779,
        "lon": 9.727007482903982,
        "alt_km": 413.71693655919444,
        "timestamp": "2025-12-21T20:41:06.757781+00:00",
        "meta_object_name": "STARLINK-35957",
        "meta_object_id": "2025-280C",
        "meta_epoch": "2025-12-21T14:00:01.999872",
        "meta_mean_motion": 15.52486194,
        "meta_eccentricity": 0.00032533,
        "meta_inclination": 69.9997,
        "meta_ra_of_asc_node": 174.1888,
        "meta_arg_of_pericenter": 267.2522,
        "meta_mean_anomaly": 196.9684,
        "meta_ephemeris_type": 0,
        "meta_classification_type": "U",
        "meta_norad_cat_id": 66823,
        "meta_element_set_no": 999,
        "meta_rev_at_epoch": 431,
        "meta_bstar": 0.00072778262,
        "meta_mean_motion_dot": 0.00044806,
        "meta_mean_motion_ddot": 0,
        "tle_line1": "1 66823U 25280C   25355.58335648  .00044806  00000+0  72778-3 0  9999",
        "tle_line2": "2 66823  69.9997 174.1888 0003253 267.2522 196.9684 15.52486194  4318"
      },
      "geometry": {
        "type": "Point",
        "coordinates": [
          9.727007482903982,
          -37.61766879545779
        ]
      }
    },
    {
      "type": "Feature",
      "properties": {
        "norad_id": 66824,
        "name": "STARLINK-35896",
        "group": "last-30-days",
        "lat": -39.33799190471149,
        "lon": 10.794076166672037,
        "alt_km": 413.7738393169311,
        "timestamp": "2025-12-21T20:41:06.757790+00:00",
        "meta_object_name": "STARLINK-35896",
        "meta_object_id": "2025-280D",
        "meta_epoch": "2025-12-21T14:00:01.999872",
        "meta_mean_motion": 15.52490866,
        "meta_eccentricity": 0.00032453,
        "meta_inclination": 69.9997,
        "meta_ra_of_asc_node": 174.1874,
        "meta_arg_of_pericenter": 267.984,
        "meta_mean_anomaly": 198.1499,
        "meta_ephemeris_type": 0,
        "meta_classification_type": "U",
        "meta_norad_cat_id": 66824,
        "meta_element_set_no": 999,
        "meta_rev_at_epoch": 431,
        "meta_bstar": 0.00054254585,
        "meta_mean_motion_dot": 0.00033316,
        "meta_mean_motion_ddot": 0,
        "tle_line1": "1 66824U 25280D   25355.58335648  .00033316  00000+0  54255-3 0  9994",
        "tle_line2": "2 66824  69.9997 174.1874 0003245 267.9840 198.1499 15.52490866  4314"
      },
      "geometry": {
        "type": "Point",
        "coordinates": [
          10.794076166672037,
          -39.33799190471149
        ]
      }
    },
    {
      "type": "Feature",
      "properties": {
        "norad_id": 66825,
        "name": "STARLINK-35476",
        "group": "last-30-days",
        "lat": -41.0517190612588,
        "lon": 11.915183459976157,
        "alt_km": 413.764128400303,
        "timestamp": "2025-12-21T20:41:06.757799+00:00",
        "meta_object_name": "STARLINK-35476",
        "meta_object_id": "2025-280E",
        "meta_epoch": "2025-12-21T14:00:01.999872",
        "meta_mean_motion": 15.52486785,
        "meta_eccentricity": 0.00032386,
        "meta_inclination": 69.9999,
        "meta_ra_of_asc_node": 174.184,
        "meta_arg_of_pericenter": 266.902,
        "meta_mean_anomaly": 201.1505,
        "meta_ephemeris_type": 0,
        "meta_classification_type": "U",
        "meta_norad_cat_id": 66825,
        "meta_element_set_no": 999,
        "meta_rev_at_epoch": 416,
        "meta_bstar": 0.00075557157,
        "meta_mean_motion_dot": 0.00046534,
        "meta_mean_motion_ddot": 0,
        "tle_line1": "1 66825U 25280E   25355.58335648  .00046534  00000+0  75557-3 0  9999",
        "tle_line2": "2 66825  69.9999 174.1840 0003238 266.9020 201.1505 15.52486785  4162"
      },
      "geometry": {
        "type": "Point",
        "coordinates": [
          11.915183459976157,
          -41.0517190612588
        ]
      }
    },
    {
      "type": "Feature",
      "properties": {
        "norad_id": 66826,
        "name": "STARLINK-35898",
        "group": "last-30-days",
        "lat": -42.7487797160616,
        "lon": 13.09464555111284,
        "alt_km": 413.79866524302906,
        "timestamp": "2025-12-21T20:41:06.757808+00:00",
        "meta_object_name": "STARLINK-35898",
        "meta_object_id": "2025-280F",
        "meta_epoch": "2025-12-21T14:00:01.999872",
        "meta_mean_motion": 15.52494646,
        "meta_eccentricity": 0.00032664,
        "meta_inclination": 69.9999,
        "meta_ra_of_asc_node": 174.1825,
        "meta_arg_of_pericenter": 267.8666,
        "meta_mean_anomaly": 202.0963,
        "meta_ephemeris_type": 0,
        "meta_classification_type": "U",
        "meta_norad_cat_id": 66826,
        "meta_element_set_no": 999,
        "meta_rev_at_epoch": 431,
        "meta_bstar": 0.00048780361,
        "meta_mean_motion_dot": 0.00029929,
        "meta_mean_motion_ddot": 0,
        "tle_line1": "1 66826U 25280F   25355.58335648  .00029929  00000+0  48780-3 0  9997",
        "tle_line2": "2 66826  69.9999 174.1825 0003266 267.8666 202.0963 15.52494646  4313"
      },
      "geometry": {
        "type": "Point",
        "coordinates": [
          13.09464555111284,
          -42.7487797160616
        ]
      }
    },
    {
      "type": "Feature",
      "properties": {
        "norad_id": 66827,
        "name": "STARLINK-35959",
        "group": "last-30-days",
        "lat": -44.43571694566468,
        "lon": 14.341912590046704,
        "alt_km": 413.83544537395574,
        "timestamp": "2025-12-21T20:41:06.757817+00:00",
        "meta_object_name": "STARLINK-35959",
        "meta_object_id": "2025-280G",
        "meta_epoch": "2025-12-21T14:00:01.999872",
        "meta_mean_motion": 15.52495764,
        "meta_eccentricity": 0.00032303,
        "meta_inclination": 69.9999,
        "meta_ra_of_asc_node": 174.1805,
        "meta_arg_of_pericenter": 267.9005,
        "meta_mean_anomaly": 203.9779,
        "meta_ephemeris_type": 0,
        "meta_classification_type": "U",
        "meta_norad_cat_id": 66827,
        "meta_element_set_no": 999,
        "meta_rev_at_epoch": 431,
        "meta_bstar": 0.0004483327,
        "meta_mean_motion_dot": 0.00027486,
        "meta_mean_motion_ddot": 0,
        "tle_line1": "1 66827U 25280G   25355.58335648  .00027486  00000+0  44833-3 0  9999",
        "tle_line2": "2 66827  69.9999 174.1805 0003230 267.9005 203.9779 15.52495764  4318"
      },
      "geometry": {
        "type": "Point",
        "coordinates": [
          14.341912590046704,
          -44.43571694566468
        ]
      }
    }
  ]
}